CCSDS_OMM_VERS = 2.0
CREATION_DATE  = 
ORIGINATOR     = 

OBJECT_NAME    = ATLAS CENTAUR 2
OBJECT_ID      = 1963-047A
CENTER_NAME    = EARTH
REF_FRAME      = TEME
TIME_SYSTEM    = UTC
MEAN_ELEMENT_THEORY = SGP/SGP4

EPOCH          = 2025-11-28T12:12:42.919776
MEAN_MOTION    = 14.11632282
ECCENTRICITY   = .05495626
INCLINATION    = 30.3590
RA_OF_ASC_NODE = 40.9368
ARG_OF_PERICENTER = 268.8402
MEAN_ANOMALY   = 84.9216

EPHEMERIS_TYPE = 0
CLASSIFICATION_TYPE = U
NORAD_CAT_ID   = 694
ELEMENT_SET_NO = 999
REV_AT_EPOCH   = 11731
BSTAR          = .4472295E-3
MEAN_MOTION_DOT = .3756E-4
MEAN_MOTION_DDOT = 0

CCSDS_OMM_VERS = 2.0
CREATION_DATE  = 
ORIGINATOR     = 

OBJECT_NAME    = THOR AGENA D R/B
OBJECT_ID      = 1964-002A
CENTER_NAME    = EARTH
REF_FRAME      = TEME
TIME_SYSTEM    = UTC
MEAN_ELEMENT_THEORY = SGP/SGP4

EPOCH          = 2025-11-28T15:03:32.073984
MEAN_MOTION    = 14.33946579
ECCENTRICITY   = .00326858
INCLINATION    = 99.1220
RA_OF_ASC_NODE = 335.4830
ARG_OF_PERICENTER = 191.0967
MEAN_ANOMALY   = 168.9498

EPHEMERIS_TYPE = 0
CLASSIFICATION_TYPE = U
NORAD_CAT_ID   = 733
ELEMENT_SET_NO = 999
REV_AT_EPOCH   = 22381
BSTAR          = .10878338E-3
MEAN_MOTION_DOT = .256E-5
MEAN_MOTION_DDOT = 0

CCSDS_OMM_VERS = 2.0
CREATION_DATE  = 
ORIGINATOR     = 

OBJECT_NAME    = SL-3 R/B
OBJECT_ID      = 1964-053B
CENTER_NAME    = EARTH
REF_FRAME      = TEME
TIME_SYSTEM    = UTC
MEAN_ELEMENT_THEORY = SGP/SGP4

EPOCH          = 2025-11-28T13:01:04.370016
MEAN_MOTION    = 14.61252519
ECCENTRICITY   = .00726127
INCLINATION    = 65.0770
RA_OF_ASC_NODE = 267.7478
ARG_OF_PERICENTER = 325.1353
MEAN_ANOMALY   = 34.5000

EPHEMERIS_TYPE = 0
CLASSIFICATION_TYPE = U
NORAD_CAT_ID   = 877
ELEMENT_SET_NO = 999
REV_AT_EPOCH   = 25201
BSTAR          = .1125798E-3
MEAN_MOTION_DOT = .453E-5
MEAN_MOTION_DDOT = 0

CCSDS_OMM_VERS = 2.0
CREATION_DATE  = 
ORIGINATOR     = 

OBJECT_NAME    = SL-8 R/B
OBJECT_ID      = 1967-045B
CENTER_NAME    = EARTH
REF_FRAME      = TEME
TIME_SYSTEM    = UTC
MEAN_ELEMENT_THEORY = SGP/SGP4

EPOCH          = 2025-11-28T19:30:32.882112
MEAN_MOTION    = 14.45518455
ECCENTRICITY   = .0064942
INCLINATION    = 74.0093
RA_OF_ASC_NODE = 176.4677
ARG_OF_PERICENTER = 208.9502
MEAN_ANOMALY   = 150.8049

EPHEMERIS_TYPE = 0
CLASSIFICATION_TYPE = U
NORAD_CAT_ID   = 2802
ELEMENT_SET_NO = 999
REV_AT_EPOCH   = 7444
BSTAR          = .90909E-4
MEAN_MOTION_DOT = .3E-5
MEAN_MOTION_DDOT = 0

CCSDS_OMM_VERS = 2.0
CREATION_DATE  = 
ORIGINATOR     = 

OBJECT_NAME    = SL-8 R/B
OBJECT_ID      = 1968-040B
CENTER_NAME    = EARTH
REF_FRAME      = TEME
TIME_SYSTEM    = UTC
MEAN_ELEMENT_THEORY = SGP/SGP4

EPOCH          = 2025-11-28T14:10:31.247616
MEAN_MOTION    = 15.02378162
ECCENTRICITY   = .00244849
INCLINATION    = 74.0294
RA_OF_ASC_NODE = 160.1336
ARG_OF_PERICENTER = 5.2163
MEAN_ANOMALY   = 354.9275

EPHEMERIS_TYPE = 0
CLASSIFICATION_TYPE = U
NORAD_CAT_ID   = 3230
ELEMENT_SET_NO = 999
REV_AT_EPOCH   = 7482
BSTAR          = .24463879E-3
MEAN_MOTION_DOT = .3217E-4
MEAN_MOTION_DDOT = 0

CCSDS_OMM_VERS = 2.0
CREATION_DATE  = 
ORIGINATOR     = 

OBJECT_NAME    = OAO 2
OBJECT_ID      = 1968-110A
CENTER_NAME    = EARTH
REF_FRAME      = TEME
TIME_SYSTEM    = UTC
MEAN_ELEMENT_THEORY = SGP/SGP4

EPOCH          = 2025-11-28T13:49:05.367648
MEAN_MOTION    = 14.47229339
ECCENTRICITY   = .00048699
INCLINATION    = 34.9923
RA_OF_ASC_NODE = 109.7305
ARG_OF_PERICENTER = 107.8476
MEAN_ANOMALY   = 252.2746

EPHEMERIS_TYPE = 0
CLASSIFICATION_TYPE = U
NORAD_CAT_ID   = 3597
ELEMENT_SET_NO = 999
REV_AT_EPOCH   = 444
BSTAR          = .77577712E-4
MEAN_MOTION_DOT = .268E-5
MEAN_MOTION_DDOT = 0

CCSDS_OMM_VERS = 2.0
CREATION_DATE  = 
ORIGINATOR     = 

OBJECT_NAME    = ISIS 1
OBJECT_ID      = 1969-009A
CENTER_NAME    = EARTH
REF_FRAME      = TEME
TIME_SYSTEM    = UTC
MEAN_ELEMENT_THEORY = SGP/SGP4

EPOCH          = 2025-11-28T19:26:21.166944
MEAN_MOTION    = 11.30345597
ECCENTRICITY   = .1706973
INCLINATION    = 88.4490
RA_OF_ASC_NODE = 166.3199
ARG_OF_PERICENTER = 292.8538
MEAN_ANOMALY   = 50.1432

EPHEMERIS_TYPE = 0
CLASSIFICATION_TYPE = U
NORAD_CAT_ID   = 3669
ELEMENT_SET_NO = 999
REV_AT_EPOCH   = 33713
BSTAR          = .13478E-3
MEAN_MOTION_DOT = .184E-5
MEAN_MOTION_DDOT = 0

CCSDS_OMM_VERS = 2.0
CREATION_DATE  = 
ORIGINATOR     = 

OBJECT_NAME    = SERT 2
OBJECT_ID      = 1970-009A
CENTER_NAME    = EARTH
REF_FRAME      = TEME
TIME_SYSTEM    = UTC
MEAN_ELEMENT_THEORY = SGP/SGP4

EPOCH          = 2025-11-28T19:32:54.337056
MEAN_MOTION    = 13.58714928
ECCENTRICITY   = .0005687
INCLINATION    = 99.2630
RA_OF_ASC_NODE = 276.4936
ARG_OF_PERICENTER = 65.5561
MEAN_ANOMALY   = 348.9449

EPHEMERIS_TYPE = 0
CLASSIFICATION_TYPE = U
NORAD_CAT_ID   = 4327
ELEMENT_SET_NO = 999
REV_AT_EPOCH   = 76619
BSTAR          = .10983E-3
MEAN_MOTION_DOT = .39E-6
MEAN_MOTION_DDOT = 0

CCSDS_OMM_VERS = 2.0
CREATION_DATE  = 
ORIGINATOR     = 

OBJECT_NAME    = SL-3 R/B
OBJECT_ID      = 1971-028B
CENTER_NAME    = EARTH
REF_FRAME      = TEME
TIME_SYSTEM    = UTC
MEAN_ELEMENT_THEORY = SGP/SGP4

EPOCH          = 2025-11-28T19:56:11.912352
MEAN_MOTION    = 15.53417759
ECCENTRICITY   = .0019823
INCLINATION    = 81.2384
RA_OF_ASC_NODE = 175.8365
ARG_OF_PERICENTER = 291.2032
MEAN_ANOMALY   = 68.7099

EPHEMERIS_TYPE = 0
CLASSIFICATION_TYPE = U
NORAD_CAT_ID   = 5118
ELEMENT_SET_NO = 999
REV_AT_EPOCH   = 97297
BSTAR          = .43159E-3
MEAN_MOTION_DOT = .2763E-3
MEAN_MOTION_DDOT = 0

CCSDS_OMM_VERS = 2.0
CREATION_DATE  = 
ORIGINATOR     = 

OBJECT_NAME    = ASTEX 1
OBJECT_ID      = 1971-089A
CENTER_NAME    = EARTH
REF_FRAME      = TEME
TIME_SYSTEM    = UTC
MEAN_ELEMENT_THEORY = SGP/SGP4

EPOCH          = 2025-11-28T10:13:33.343104
MEAN_MOTION    = 14.50614815
ECCENTRICITY   = .00177306
INCLINATION    = 92.7130
RA_OF_ASC_NODE = 118.9890
ARG_OF_PERICENTER = 69.9210
MEAN_ANOMALY   = 290.3902

EPHEMERIS_TYPE = 0
CLASSIFICATION_TYPE = U
NORAD_CAT_ID   = 5560
ELEMENT_SET_NO = 999
REV_AT_EPOCH   = 84762
BSTAR          = .16262026E-3
MEAN_MOTION_DOT = .638E-5
MEAN_MOTION_DDOT = 0

CCSDS_OMM_VERS = 2.0
CREATION_DATE  = 
ORIGINATOR     = 

OBJECT_NAME    = OAO 3 (COPERNICUS)
OBJECT_ID      = 1972-065A
CENTER_NAME    = EARTH
REF_FRAME      = TEME
TIME_SYSTEM    = UTC
MEAN_ELEMENT_THEORY = SGP/SGP4

EPOCH          = 2025-11-28T12:20:16.728864
MEAN_MOTION    = 14.59886314
ECCENTRICITY   = .00060974
INCLINATION    = 35.0037
RA_OF_ASC_NODE = 153.7030
ARG_OF_PERICENTER = 48.1726
MEAN_ANOMALY   = 341.7182

EPHEMERIS_TYPE = 0
CLASSIFICATION_TYPE = U
NORAD_CAT_ID   = 6153
ELEMENT_SET_NO = 999
REV_AT_EPOCH   = 83140
BSTAR          = .82608918E-4
MEAN_MOTION_DOT = .38E-5
MEAN_MOTION_DDOT = 0

