ATLAS CENTAUR 2         
1 00694U 63047A   25332.50883009  .00003756  00000+0  44723-3 0  9990
2 00694  30.3590  40.9368 0549562 268.8402  84.9216 14.11632282117315
THOR AGENA D R/B        
1 00733U 64002A   25332.62745456  .00000256  00000+0  10878-3 0  9998
2 00733  99.1220 335.4830 0032685 191.0967 168.9498 14.33946579223813
SL-3 R/B                
1 00877U 64053B   25332.54241169  .00000453  00000+0  11258-3 0  9998
2 00877  65.0770 267.7478 0072612 325.1353  34.5000 14.61252519252018
SL-8 R/B                
1 02802U 67045B   25332.81288058  .00000300  00000+0  90909-4 0  9992
2 02802  74.0093 176.4677 0064942 208.9502 150.8049 14.45518455 74444
SL-8 R/B                
1 03230U 68040B   25332.59063944  .00003217  00000+0  24464-3 0  9996
2 03230  74.0294 160.1336 0024484   5.2163 354.9275 15.02378162 74826
OAO 2                   
1 03597U 68110A   25332.57575657  .00000268  00000+0  77578-4 0  9995
2 03597  34.9923 109.7305 0004869 107.8476 252.2746 14.47229339  4445
ISIS 1                  
1 03669U 69009A   25332.80996721  .00000184  00000+0  13478-3 0  9993
2 03669  88.4490 166.3199 1706973 292.8538  50.1432 11.30345597337134
SERT 2                  
1 04327U 70009A   25332.81451779  .00000039  00000+0  10983-3 0  9994
2 04327  99.2630 276.4936 0005687  65.5561 348.9449 13.58714928766196
SL-3 R/B                
1 05118U 71028B   25332.83069343  .00027630  00000+0  43159-3 0  9996
2 05118  81.2384 175.8365 0019823 291.2032  68.7099 15.53417759972970
ASTEX 1                 
1 05560U 71089A   25332.42608036  .00000638  00000+0  16262-3 0  9991
2 05560  92.7130 118.9890 0017730  69.9210 290.3902 14.50614815847628
OAO 3 (COPERNICUS)      
1 06153U 72065A   25332.51408251  .00000380  00000+0  82609-4 0  9995
2 06153  35.0037 153.7030 0006097  48.1726 341.7182 14.59886314831405
